FLOCK 4H-17             
1 66720U 25276BG  26068.50940711  .00016485  00000+0  77232-3 0  9999
2 66720  97.4298 143.9091 0002134 323.7123  36.3967 15.19779499 15292
FLOCK 4H-31             
1 66734U 25276BW  26068.17539094  .00008555  00000+0  41894-3 0  9999
2 66734  97.4236 143.3458 0004026  29.5854 330.5607 15.18403847 15238
